{
  "type": "FeatureCollection",
  "features": [
    {
      "type": "Feature",
      "properties": {
        "building_id": "B001"
      },
      "geometry": {
        "type": "Polygon",
        "coordinates": [
          [
            [
              486000,
              3199000
            ],
            [
              486120,
              3199000
            ],
            [
              486120,
              3199120
            ],
            [
              486000,
              3199120
            ],
            [
              486000,
              3199000
            ]
          ]
        ]
      }
    },
    {
      "type": "Feature",
      "properties": {
        "building_id": "B002"
      },
      "geometry": {
        "type": "Polygon",
        "coordinates": [
          [
            [
              486200,
              3199050
            ],
            [
              486350,
              3199050
            ],
            [
              486350,
              3199200
            ],
            [
              486200,
              3199200
            ],
            [
              486200,
              3199050
            ]
          ]
        ]
      }
    },
    {
      "type": "Feature",
      "properties": {
        "building_id": "B003"
      },
      "geometry": {
        "type": "Polygon",
        "coordinates": [
          [
            [
              499950,
              3199100
            ],
            [
              500070,
              3199100
            ],
            [
              500070,
              3199220
            ],
            [
              499950,
              3199220
            ],
            [
              499950,
              3199100
            ]
          ]
        ]
      }
    },
    {
      "type": "Feature",
      "properties": {
        "building_id": "B004"
      },
      "geometry": {
        "type": "Polygon",
        "coordinates": [
          [
            [
              513000,
              3199000
            ],
            [
              513180,
              3199000
            ],
            [
              513180,
              3199180
            ],
            [
              513000,
              3199180
            ],
            [
              513000,
              3199000
            ]
          ]
        ]
      }
    },
    {
      "type": "Feature",
      "properties": {
        "building_id": "B005"
      },
      "geometry": {
        "type": "Polygon",
        "coordinates": [
          [
            [
              486000,
              3199000
            ],
            [
              486120,
              3199000
            ],
            [
              486120,
              3199120
            ],
            [
              486000,
              3199120
            ],
            [
              486000,
              3199000
            ]
          ]
        ]
      }
    },
    {
      "type": "Feature",
      "properties": {
        "building_id": "B006"
      },
      "geometry": {
        "type": "Polygon",
        "coordinates": [
          [
            [
              513400,
              3199400
            ],
            [
              513560,
              3199400
            ],
            [
              513560,
              3199560
            ],
            [
              513400,
              3199560
            ],
            [
              513400,
              3199400
            ]
          ]
        ]
      }
    },
    {
      "type": "Feature",
      "properties": {
        "building_id": "B006"
      },
      "geometry": {
        "type": "Polygon",
        "coordinates": [
          [
            [
              513420,
              3199420
            ],
            [
              513580,
              3199420
            ],
            [
              513580,
              3199580
            ],
            [
              513420,
              3199580
            ],
            [
              513420,
              3199420
            ]
          ]
        ]
      }
    },
    {
      "type": "Feature",
      "properties": {
        "building_id": "B007"
      },
      "geometry": {
        "type": "Polygon",
        "coordinates": [
          [
            [
              499800,
              3199400
            ],
            [
              500020,
              3199620
            ],
            [
              499800,
              3199620
            ],
            [
              500020,
              3199400
            ],
            [
              499800,
              3199400
            ]
          ]
        ]
      }
    }
  ]
}